[{"OBJECT_NAME":"STARLINK-3838","OBJECT_ID":"2022-045X","EPOCH":"2026-03-09T16:26:45.575808","MEAN_MOTION":15.0884389,"ECCENTRICITY":0.00011239,"INCLINATION":53.2167,"RA_OF_ASC_NODE":199.1415,"ARG_OF_PERICENTER":84.4576,"MEAN_ANOMALY":275.6545,"EPHEMERIS_TYPE":0,"CLASSIFICATION_TYPE":"U","NORAD_CAT_ID":52352,"ELEMENT_SET_NO":999,"REV_AT_EPOCH":21578,"BSTAR":2.0286512e-5,"MEAN_MOTION_DOT":3.5e-7,"MEAN_MOTION_DDOT":0},{"OBJECT_NAME":"DIADEME 1","OBJECT_ID":"1967-011A","EPOCH":"2026-03-09T04:18:35.665344","MEAN_MOTION":14.73682571,"ECCENTRICITY":0.02083573,"INCLINATION":39.9159,"RA_OF_ASC_NODE":131.181,"ARG_OF_PERICENTER":280.4589,"MEAN_ANOMALY":77.2777,"EPHEMERIS_TYPE":0,"CLASSIFICATION_TYPE":"U","NORAD_CAT_ID":2674,"ELEMENT_SET_NO":999,"REV_AT_EPOCH":7534,"BSTAR":0.00083818809,"MEAN_MOTION_DOT":7.747e-5,"MEAN_MOTION_DDOT":0}]
